0 MORELOS 1 R/B(PAM-D)
1 15832U 85048F   13280.55968369  .00000116  00000-0  50607-3 0  2115
2 15832 025.7149 013.1424 7159225 058.8288 006.9317 02.35839291185905
0 MORELOS 1 R/B(PAM-D)
1 15832U 85048F   13282.68054618  .00000143  00000-0  50698-3 0  2125
2 15832 025.7148 012.3448 7159314 060.1836 007.5767 02.35841166185950
0 MORELOS 1 R/B(PAM-D)
1 15832U 85048F   13283.50974105  .00000643  00000-0  13861-2 0  2146
2 15832 025.7128 012.0333 7161022 060.7154 351.5787 02.35840949185969
0 MORELOS 1 R/B(PAM-D)
1 15832U 85048F   13285.65406946  .00000145  00000-0  53106-3 0  2130
2 15832 025.7149 011.2264 7159553 062.0811 012.1656 02.35842506186021
0 MORELOS 1 R/B(PAM-D)
1 15832U 85048F   13287.73835303  .00000116  00000-0  58605-3 0  2142
2 15832 025.7151 010.4427 7159751 063.4109 341.7786 02.35843865186070
0 MORELOS 1 R/B(PAM-D)
1 15832U 85048F   13290.31488602  .00000035  00000-0  54559-3 0  2151
2 15832 025.7153 009.4732 7160033 065.0559 009.3355 02.35845877186132
0 MORELOS 1 R/B(PAM-D)
1 15832U 85048F   13292.42686183  .00000015  00000-0  50929-3 0  2165
2 15832 025.7153 008.6780 7160257 066.4049 002.4816 02.35847059186188
0 MORELOS 1 R/B(PAM-D)
1 15832U 85048F   13294.55308933  .00000025  00000-0  44699-3 0  2174
2 15832 025.7153 007.8767 7160529 067.7639 007.7377 02.35848661186231
